[{"OBJECT_NAME":"STARLINK-3415","OBJECT_ID":"2022-010S","EPOCH":"2026-03-09T20:53:05.188416","MEAN_MOTION":15.0883577,"ECCENTRICITY":0.00014672,"INCLINATION":53.2168,"RA_OF_ASC_NODE":278.2438,"ARG_OF_PERICENTER":97.8599,"MEAN_ANOMALY":262.256,"EPHEMERIS_TYPE":0,"CLASSIFICATION_TYPE":"U","NORAD_CAT_ID":51472,"ELEMENT_SET_NO":999,"REV_AT_EPOCH":22685,"BSTAR":-4.9356584e-5,"MEAN_MOTION_DOT":-1.073e-5,"MEAN_MOTION_DDOT":0},{"OBJECT_NAME":"CZ-4C DEB","OBJECT_ID":"2015-069E","EPOCH":"2026-03-08T09:26:17.543040","MEAN_MOTION":15.0129982,"ECCENTRICITY":0.00755181,"INCLINATION":98.2766,"RA_OF_ASC_NODE":51.2744,"ARG_OF_PERICENTER":283.3594,"MEAN_ANOMALY":75.9217,"EPHEMERIS_TYPE":0,"CLASSIFICATION_TYPE":"U","NORAD_CAT_ID":42672,"ELEMENT_SET_NO":999,"REV_AT_EPOCH":54397,"BSTAR":0.0018440127,"MEAN_MOTION_DOT":0.00025217,"MEAN_MOTION_DDOT":0}]
